PHASE 3B (AO-10)        
1 14129U 83058B   21016.96862192 -.00000377  00000-0  00000-0 0  9992
2 14129  25.7815 179.9213 6067198 301.9598  12.8381  2.05872009254806
UOSAT 2 (UO-11)         
1 14781U 84021B   21017.75526462  .00000069  00000-0  14495-4 0  9996
2 14781  97.5898  25.0492 0007645 208.1269 151.9534 14.83238010963591
LUSAT (LO-19)           
1 20442U 90005G   21017.80611913  .00000014  00000-0  21531-4 0  9997
2 20442  98.7219 332.0728 0010753 242.0932 117.9163 14.32973602619251
EYESAT A (AO-27)        
1 22825U 93061C   21017.95541323 -.00000016  00000-0  11637-4 0  9991
2 22825  98.9242  31.8188 0009408 110.6712 249.5479 14.30103784424745
ITAMSAT (IO-26)         
1 22826U 93061D   21017.75152766 -.00000019  00000-0  10692-4 0  9992
2 22826  98.9183  31.5333 0009984 100.2372 259.9936 14.30441278424684
RADIO ROSTO (RS-15)     
1 23439U 94085A   21017.92982898 -.00000037  00000-0  15882-3 0  9991
2 23439  64.8177 259.4028 0156045   2.2941 357.8667 11.27570077 73363
JAS-2 (FO-29)           
1 24278U 96046B   21017.82648941  .00000004  00000-0  39133-4 0  9998
2 24278  98.5844 105.6606 0350441 179.6632 180.4808 13.53101965205873
TECHSAT 1B (GO-32)      
1 25397U 98043D   21017.79808010 -.00000004  00000-0  17871-4 0  9997
2 25397  98.7545 323.9081 0001904 126.9698 233.1654 14.23699428170052
ISS (ZARYA)             
1 25544U 98067A   21018.42396323  .00000576  00000-0  18407-4 0  9996
2 25544  51.6467   3.4695 0000261 274.2255 184.5001 15.49299389265386
PCSAT (NO-44)           
1 26931U 01043C   21017.86920317  .00000016  00000-0  37794-4 0  9997
2 26931  67.0524 309.0595 0007417 271.8353  88.1898 14.30603060  7705
SAUDISAT 1C (SO-50)     
1 27607U 02058C   21017.85861125 -.00000004  00000-0  19725-4 0  9997
2 27607  64.5559  78.8307 0029352  88.3231 272.1233 14.75703137972351
CUTE-1 (CO-55)          
1 27844U 03031E   21017.57880115  .00000039  00000-0  37268-4 0  9990
2 27844  98.6816  28.0706 0010366 150.5979 209.5783 14.22282552910535
CUBESAT XI-IV (CO-57)   
1 27848U 03031J   21018.01988092  .00000026  00000-0  31720-4 0  9990
2 27848  98.6878  29.0729 0010057 161.6126 198.5417 14.21863323910460
MOZHAYETS 4 (RS-22)     
1 27939U 03042A   21018.18607090  .00000100  00000-0  26647-4 0  9992
2 27939  98.1176 156.5554 0013620  40.2818 319.9385 14.66933529925495
CUBESAT XI-V            
1 28895U 05043F   21017.84614632  .00000125  00000-0  32880-4 0  9992
2 28895  98.0358 154.5937 0015959 328.5734  31.4513 14.63854456811971
CUTE-1.7+APD II (CO-65) 
1 32785U 08021C   21017.83671889  .00000250  00000-0  32415-4 0  9993
2 32785  97.5948   2.6868 0013931 137.5872 222.6424 14.88612674689764
DELFI-C3 (DO-64)        
1 32789U 08021G   21017.85869913  .00001568  00000-0  10462-3 0  9996
2 32789  97.3947  58.9336 0010500 303.8873  56.1356 15.08397947694123
SEEDS II (CO-66)        
1 32791U 08021J   21017.93360890  .00000333  00000-0  38725-4 0  9990
2 32791  97.5575   8.8202 0014673 105.9831 254.3005 14.91248961690425
YUBILEINY (RS-30)       
1 32953U 08025A   21018.20708686  .00000028  00000-0  12906-3 0  9997
2 32953  82.5047 144.3775 0018585 305.4796  54.4547 12.43099444574311
KKS-1 (KISEKI)          
1 33499U 09002H   21017.80200581  .00000093  00000-0  21634-4 0  9996
2 33499  98.2891 244.2106 0009534 154.5007 205.6673 14.75607530644190
SWISSCUBE               
1 35932U 09051B   21017.77021194  .00000119  00000-0  37766-4 0  9993
2 35932  98.6067 212.9758 0007475 182.2472 177.8693 14.56477237601029
BEESAT-1                
1 35933U 09051C   21017.81085617  .00000099  00000-0  33270-4 0  9992
2 35933  98.6044 214.8737 0005438 192.7381 167.3679 14.56542548601100
ITUPSAT1                
1 35935U 09051E   21018.00055325  .00000086  00000-0  30819-4 0  9991
2 35935  98.6149 215.2361 0007765 195.3231 164.7732 14.55680735600913
XIWANG-1 (HOPE-1)       
1 36122U 09072B   21017.88944619 -.00000036  00000-0  17390-4 0  9996
2 36122 100.1131   4.9127 0008173  90.0571 270.1474 13.16358660533080
JUGNU                   
1 37839U 11058B   21018.14467726  .00000322  00000-0  29531-4 0  9995
2 37839  19.9626  60.7691 0018681 234.9985 156.3090 14.12700767479298
SRMSAT                  
1 37841U 11058D   21017.70448712  .00000301  00000-0  20487-4 0  9991
2 37841  19.9713 132.1978 0011999  77.4021  68.0783 14.10683245478416
M-CUBED & EXP-1 PRIME   
1 37855U 11061F   21017.88184129  .00001388  00000-0  74700-4 0  9991
2 37855 101.7265 223.1939 0168604 158.3267 202.5192 15.07095269503966
STRAND-1                
1 39090U 13009E   21018.02432221  .00000027  00000-0  24414-4 0  9990
2 39090  98.4366 223.6627 0009372  13.3343 346.8089 14.35164261413486
SOMP                    
1 39134U 13015E   21017.86732523  .00001319  00000-0  66610-4 0  9994
2 39134  64.8633 301.9068 0012506 219.6550 140.3665 15.21883161428297
BEESAT-3                
1 39135U 13015F   21017.22700826  .00001082  00000-0  61158-4 0  9995
2 39135  64.8681 330.7470 0017786 208.3069 151.7093 15.18833085427671
BEESAT-2                
1 39136U 13015G   21017.22837223  .00001121  00000-0  63813-4 0  9992
2 39136  64.8743 336.5229 0029293 263.4635  96.3156 15.18210229427554
ZACUBE-1 (TSHEPISOSAT)  
1 39417U 13066B   21017.56057093  .00000252  00000-0  37868-4 0  9991
2 39417  97.5793   9.8359 0057396 296.5684  62.9654 14.81410124386735
GOMX-1                  
1 39430U 13066Q   21018.12356558  .00000140  00000-0  34582-4 0  9993
2 39430  97.8088 309.8731 0149453 228.1237 130.7140 14.59522277381117
CUBEBUG-2 (LO-74)       
1 39440U 13066AA  21017.83832580  .00000293  00000-0  47481-4 0  9996
2 39440  97.6572 354.7984 0080163   5.3363 354.8683 14.76142200384207
FUNCUBE-1 (AO-73)       
1 39444U 13066AE  21017.70338198  .00000298  00000-0  42728-4 0  9996
2 39444  97.5716  12.2977 0056391 287.0338  72.4702 14.82294538385109
UWE-3                   
1 39446U 13066AG  21017.86590454  .00000265  00000-0  41609-4 0  9991
2 39446  97.6201   1.8977 0069127 331.5075  28.2364 14.78677978384255
SPROUT                  
1 39770U 14029E   21018.21153544  .00000819  00000-0  94968-4 0  9997
2 39770  97.9061 129.7732 0008740 349.4683  10.6360 14.88130552360997
UNISAT-6                
1 40012U 14033C   21017.82604882  .00000171  00000-0  32559-4 0  9994
2 40012  97.6868 228.0399 0058862  28.6406 331.8015 14.74227463354004
DUCHIFAT-1              
1 40021U 14033M   21018.09873256  .00000619  00000-0  68196-4 0  9990
2 40021  97.9605 316.8409 0011725 304.4062  55.6047 14.91147773357872
QB50P1                  
1 40025U 14033R   21017.79403629  .00000298  00000-0  37409-4 0  9999
2 40025  97.9264 308.1722 0011512 319.8373  40.1993 14.89306701356994
NUDT-PHONESAT           
1 40900U 15049B   21018.00340263  .00002456  00000-0  10026-3 0  9991
2 40900  97.4254  33.1793 0010911 315.5744 102.1254 15.25317489295885
ZDPS 2A                 
1 40901U 15049C   21018.08476535  .00001287  00000-0  64801-4 0  9994
2 40901  97.4625  27.0374 0012991 353.2518  77.4777 15.18937557295142
ZDPS 2B                 
1 40902U 15049D   21018.06680686  .00001418  00000-0  71033-4 0  9998
2 40902  97.4640  24.3031 0012915 350.9235  80.6341 15.18953337295110
XW-2A                   
1 40903U 15049E   21018.14432074  .00001858  00000-0  42286-4 0  9990
2 40903  97.2591  73.0024 0012135 194.8052 221.7749 15.44223572299599
KAITUO 1A               
1 40904U 15049F   21018.12628916  .00000616  00000-0  35525-4 0  9990
2 40904  97.4820  22.0101 0014730   5.7501  58.9772 15.15966977294760
2015-049G               
1 40905U 15049G   21018.11119351  .00000607  00000-0  36219-4 0  9999
2 40905  97.4937  19.1156 0015590   4.1269  60.8459 15.14795224294573
XW-2C                   
1 40906U 15049H   21018.12310955  .00000823  00000-0  45678-4 0  9993
2 40906  97.4826  22.4184 0014538 356.2879  68.8108 15.16431853294787
XW-2D                   
1 40907U 15049J   21018.08226367  .00000641  00000-0  36084-4 0  9991
2 40907  97.4811  22.1273 0013852 353.2386  77.5701 15.16709469294806
LILACSAT-2              
1 40908U 15049K   21018.08806002  .00000159  00000-0  12306-4 0  9997
2 40908  97.4986  20.1905 0016105   5.8220  67.1263 15.14253859294477
XW-2F                   
1 40910U 15049M   21018.09579438  .00001046  00000-0  53915-4 0  9998
2 40910  97.4709  25.0244 0013869 340.2011  93.1580 15.18523803294903
XW-2B                   
1 40911U 15049N   21018.07697159  .00000744  00000-0  41420-4 0  9990
2 40911  97.4813  22.8174 0013793 354.3865  76.2599 15.16631228294693
KAITUO 1B               
1 40912U 15049P   21018.07699503  .00001369  00000-0  64803-4 0  9990
2 40912  97.4464  29.3232 0013295 313.6805 118.2685 15.20995514295333
TIANWANG 1C (TW-1C)     
1 40926U 15051B   21018.12544264  .00112050  00000-0  39347-3 0  9991
2 40926  97.0500  79.1555 0001892 340.1342  73.4707 15.88910400300774
TIANWANG 1A (TW-1A)     
1 40928U 15051D   21018.07851264  .00002856  00000-0  63779-4 0  9997
2 40928  97.0912  46.6381 0011629 118.3768 302.3229 15.44278407298477
LAPAN-A2                
1 40931U 15052B   21018.06352771  .00000777  00000-0  19171-4 0  9997
2 40931   5.9993 244.9495 0013137  72.7451 287.4071 14.76659862287035
E-ST@R-II               
1 41459U 16025D   21018.09300243  .00002960  00000-0  14913-3 0  9998
2 41459  98.1201 145.6370 0162569 208.7961 150.4237 15.07272802259769
AAUSAT 4                
1 41460U 16025E   21018.07900941  .00004266  00000-0  20475-3 0  9990
2 41460  98.1207 148.7878 0150531 194.8809 164.7928 15.09985173260015
NUSAT-1 (FRESCO)        
1 41557U 16033B   21018.21265561  .00001349  00000-0  50806-4 0  9995
2 41557  97.3985 113.0766 0014472  52.7156  30.9105 15.28776616258577
BEESAT-4                
1 41619U 16040W   21018.14921617  .00001569  00000-0  65973-4 0  9990
2 41619  97.2924  78.3402 0012016 136.6680 223.5505 15.24801909242100
